[
    {
        "Altitude(m)": 704566.3575669026,
        "Argument of Periapsis(deg)": 0.0011390121186627068,
        "Eccentricity": 0.0,
        "Inclination(deg)": 45.0,
        "Latitude(deg)": 31.778532128087107,
        "Longitude(deg)": 81.91284271979119,
        "Mean Anomaly(deg)": 132.06242166474806,
        "RAAN(deg)": 39.99892480585417,
        "Satellite Name": "Constellation 1 184",
        "Satellite Number": 184,
        "Semi-Major Axis(m)": 7083131.272910544,
        "Time(s)": 19
    },
    {
        "Altitude(m)": 704560.457602568,
        "Argument of Periapsis(deg)": 0.0011989601249081123,
        "Eccentricity": 0.0,
        "Inclination(deg)": 45.0,
        "Latitude(deg)": 31.74456137400258,
        "Longitude(deg)": 81.9679266215283,
        "Mean Anomaly(deg)": 132.123122804998,
        "RAAN(deg)": 39.99886821668861,
        "Satellite Name": "Constellation 1 184",
        "Satellite Number": 184,
        "Semi-Major Axis(m)": 7083131.272910544,
        "Time(s)": 20
    },
    {
        "Altitude(m)": 704554.5599698031,
        "Argument of Periapsis(deg)": 0.001258908131153518,
        "Eccentricity": 0.0,
        "Inclination(deg)": 45.0,
        "Latitude(deg)": 31.710562972920133,
        "Longitude(deg)": 82.02296733294642,
        "Mean Anomaly(deg)": 132.18382394524787,
        "RAAN(deg)": 39.99881162752303,
        "Satellite Name": "Constellation 1 184",
        "Satellite Number": 184,
        "Semi-Major Axis(m)": 7083131.272910544,
        "Time(s)": 21
    },
    {
        "Altitude(m)": 704548.6647079282,
        "Argument of Periapsis(deg)": 0.0013188561373989236,
        "Eccentricity": 0.0,
        "Inclination(deg)": 45.0,
        "Latitude(deg)": 31.6765369808884,
        "Longitude(deg)": 82.07796473975642,
        "Mean Anomaly(deg)": 132.24452508549774,
        "RAAN(deg)": 39.99875503835747,
        "Satellite Name": "Constellation 1 184",
        "Satellite Number": 184,
        "Semi-Major Axis(m)": 7083131.272910544,
        "Time(s)": 22
    },
    {
        "Altitude(m)": 704542.7718562693,
        "Argument of Periapsis(deg)": 0.0013788041436443293,
        "Eccentricity": 0.0,
        "Inclination(deg)": 45.0,
        "Latitude(deg)": 31.64248345388318,
        "Longitude(deg)": 82.13291923205662,
        "Mean Anomaly(deg)": 132.30522622574767,
        "RAAN(deg)": 39.9986984491919,
        "Satellite Name": "Constellation 1 184",
        "Satellite Number": 184,
        "Semi-Major Axis(m)": 7083131.272910544,
        "Time(s)": 23
    },
    {
        "Altitude(m)": 704536.881454158,
        "Argument of Periapsis(deg)": 0.001438752149889735,
        "Eccentricity": 0.0,
        "Inclination(deg)": 45.0,
        "Latitude(deg)": 31.608402447806817,
        "Longitude(deg)": 82.18783069574928,
        "Mean Anomaly(deg)": 132.36592736599758,
        "RAAN(deg)": 39.99864186002633,
        "Satellite Name": "Constellation 1 184",
        "Satellite Number": 184,
        "Semi-Major Axis(m)": 7083131.272910544,
        "Time(s)": 24
    },
    {
        "Altitude(m)": 704530.9935409323,
        "Argument of Periapsis(deg)": 0.0014987001561351404,
        "Eccentricity": 0.0,
        "Inclination(deg)": 45.0,
        "Latitude(deg)": 31.57429401848862,
        "Longitude(deg)": 82.24269918492796,
        "Mean Anomaly(deg)": 132.42662850624748,
        "RAAN(deg)": 39.99858527086076,
        "Satellite Name": "Constellation 1 184",
        "Satellite Number": 184,
        "Semi-Major Axis(m)": 7083131.272910544,
        "Time(s)": 25
    },
    {
        "Altitude(m)": 704525.1081559268,
        "Argument of Periapsis(deg)": 0.001558648162380546,
        "Eccentricity": 0.0,
        "Inclination(deg)": 45.0,
        "Latitude(deg)": 31.540158221684624,
        "Longitude(deg)": 82.29752475378001,
        "Mean Anomaly(deg)": 132.4873296464974,
        "RAAN(deg)": 39.99852868169519,
        "Satellite Name": "Constellation 1 184",
        "Satellite Number": 184,
        "Semi-Major Axis(m)": 7083131.272910544,
        "Time(s)": 26
    },
    {
        "Altitude(m)": 704519.2253384894,
        "Argument of Periapsis(deg)": 0.0016185961686259519,
        "Eccentricity": 0.0,
        "Inclination(deg)": 45.0,
        "Latitude(deg)": 31.505995113077685,
        "Longitude(deg)": 82.35230745658532,
        "Mean Anomaly(deg)": 132.5480307867473,
        "RAAN(deg)": 39.99847209252962,
        "Satellite Name": "Constellation 1 184",
        "Satellite Number": 184,
        "Semi-Major Axis(m)": 7083131.272910544,
        "Time(s)": 27
    },
    {
        "Altitude(m)": 704513.3451279679,
        "Argument of Periapsis(deg)": 0.0016785441748713573,
        "Eccentricity": 0.0,
        "Inclination(deg)": 45.0,
        "Latitude(deg)": 31.47180474827748,
        "Longitude(deg)": 82.40704734771565,
        "Mean Anomaly(deg)": 132.6087319269972,
        "RAAN(deg)": 39.99841550336406,
        "Satellite Name": "Constellation 1 184",
        "Satellite Number": 184,
        "Semi-Major Axis(m)": 7083131.272910544,
        "Time(s)": 28
    },
    {
        "Altitude(m)": 704507.4675637053,
        "Argument of Periapsis(deg)": 0.001738492181116763,
        "Eccentricity": 0.0,
        "Inclination(deg)": 45.0,
        "Latitude(deg)": 31.43758718282043,
        "Longitude(deg)": 82.46174448163379,
        "Mean Anomaly(deg)": 132.66943306724707,
        "RAAN(deg)": 39.998358914198484,
        "Satellite Name": "Constellation 1 184",
        "Satellite Number": 184,
        "Semi-Major Axis(m)": 7083131.272910544,
        "Time(s)": 29
    },
    {
        "Altitude(m)": 704501.5926850624,
        "Argument of Periapsis(deg)": 0.0017984401873621684,
        "Eccentricity": 0.0,
        "Inclination(deg)": 45.0,
        "Latitude(deg)": 31.403342472169626,
        "Longitude(deg)": 82.51639874479547,
        "Mean Anomaly(deg)": 132.73013420749695,
        "RAAN(deg)": 39.99830232503291,
        "Satellite Name": "Constellation 1 184",
        "Satellite Number": 184,
        "Semi-Major Axis(m)": 7083131.272910544,
        "Time(s)": 30
    },
    {
        "Altitude(m)": 704495.7205313949,
        "Argument of Periapsis(deg)": 0.0018583881936075745,
        "Eccentricity": 0.0,
        "Inclination(deg)": 45.0,
        "Latitude(deg)": 31.36907067171502,
        "Longitude(deg)": 82.57101052803766,
        "Mean Anomaly(deg)": 132.79083534774688,
        "RAAN(deg)": 39.99824573586734,
        "Satellite Name": "Constellation 1 184",
        "Satellite Number": 184,
        "Semi-Major Axis(m)": 7083131.272910544,
        "Time(s)": 31
    },
    {
        "Altitude(m)": 704489.8511420694,
        "Argument of Periapsis(deg)": 0.0019183361998529795,
        "Eccentricity": 0.0,
        "Inclination(deg)": 45.0,
        "Latitude(deg)": 31.334771836773204,
        "Longitude(deg)": 82.62557971799401,
        "Mean Anomaly(deg)": 132.85153648799678,
        "RAAN(deg)": 39.998189146701776,
        "Satellite Name": "Constellation 1 184",
        "Satellite Number": 184,
        "Semi-Major Axis(m)": 7083131.272910544,
        "Time(s)": 32
    },
    {
        "Altitude(m)": 704483.9845564419,
        "Argument of Periapsis(deg)": 0.0019782842060983856,
        "Eccentricity": 0.0,
        "Inclination(deg)": 45.0,
        "Latitude(deg)": 31.300446022587572,
        "Longitude(deg)": 82.68010636948306,
        "Mean Anomaly(deg)": 132.91223762824666,
        "RAAN(deg)": 39.9981325575362,
        "Satellite Name": "Constellation 1 184",
        "Satellite Number": 184,
        "Semi-Major Axis(m)": 7083131.272910544,
        "Time(s)": 33
    },
    {
        "Altitude(m)": 704478.1208138744,
        "Argument of Periapsis(deg)": 0.0020382322123437906,
        "Eccentricity": 0.0,
        "Inclination(deg)": 45.0,
        "Latitude(deg)": 31.26609328432821,
        "Longitude(deg)": 82.73459053741043,
        "Mean Anomaly(deg)": 132.9729387684966,
        "RAAN(deg)": 39.99807596837064,
        "Satellite Name": "Constellation 1 184",
        "Satellite Number": 184,
        "Semi-Major Axis(m)": 7083131.272910544,
        "Time(s)": 34
    },
    {
        "Altitude(m)": 704472.2599537466,
        "Argument of Periapsis(deg)": 0.002098180218589197,
        "Eccentricity": 0.0,
        "Inclination(deg)": 45.0,
        "Latitude(deg)": 31.231713677091815,
        "Longitude(deg)": 82.78903227676766,
        "Mean Anomaly(deg)": 133.03363990874644,
        "RAAN(deg)": 39.99801937920507,
        "Satellite Name": "Constellation 1 184",
        "Satellite Number": 184,
        "Semi-Major Axis(m)": 7083131.272910544,
        "Time(s)": 35
    },
    {
        "Altitude(m)": 704466.4020154206,
        "Argument of Periapsis(deg)": 0.002158128224834602,
        "Eccentricity": 0.0,
        "Inclination(deg)": 45.0,
        "Latitude(deg)": 31.197307255901837,
        "Longitude(deg)": 82.84343164263186,
        "Mean Anomaly(deg)": 133.09434104899637,
        "RAAN(deg)": 39.997962790039495,
        "Satellite Name": "Constellation 1 184",
        "Satellite Number": 184,
        "Semi-Major Axis(m)": 7083131.272910544,
        "Time(s)": 36
    },
    {
        "Altitude(m)": 704460.5470382716,
        "Argument of Periapsis(deg)": 0.002218076231080008,
        "Eccentricity": 0.0,
        "Inclination(deg)": 45.0,
        "Latitude(deg)": 31.162874075708444,
        "Longitude(deg)": 82.89778852206707,
        "Mean Anomaly(deg)": 133.15504218924627,
        "RAAN(deg)": 39.99790620087392,
        "Satellite Name": "Constellation 1 184",
        "Satellite Number": 184,
        "Semi-Major Axis(m)": 7083131.272910544,
        "Time(s)": 37
    }
]